{
  "norad_id": 68147,
  "name": "STARLINK-37055",
  "history": [
    {
      "epoch": "2026-03-28T21:47:31.715808Z",
      "apogee_km": 328.7104898235175,
      "perigee_km": 327.45173268403505,
      "latitude_deg": -3.317141323864088e-05,
      "longitude_deg": -45.1025524360663,
      "height_km": 331.3095148078381,
      "semi_major_axis_km": 6706.2181112537755,
      "eccentricity": 9.385e-05,
      "inclination_deg": 97.2845,
      "raan_deg": 108.1013,
      "arg_perigee_deg": 94.9179,
      "mean_anomaly_deg": 265.2196,
      "mean_motion_rev_day": 15.80833937
    },
    {
      "epoch": "2026-03-29T02:20:59.633088Z",
      "apogee_km": 328.7254173601468,
      "perigee_km": 327.4901270731043,
      "latitude_deg": 4.0590177665007044e-05,
      "longitude_deg": -113.45526413632273,
      "height_km": 331.255134052582,
      "semi_major_axis_km": 6706.244772216625,
      "eccentricity": 9.21e-05,
      "inclination_deg": 97.2845,
      "raan_deg": 108.3021,
      "arg_perigee_deg": 87.4882,
      "mean_anomaly_deg": 272.6492,
      "mean_motion_rev_day": 15.8082451
    }
  ]
}